{"type": "FeatureCollection", "features": [ {"type": "Feature", "properties": {"norad_id": 66805, "name": "STARLINK-36049", "group": "last-30-days", "lat": -32.17090917681874, "lon": -161.93535954450633, "alt_km": 324.488134935189, "timestamp": "2025-12-14T14:39:28.133309+00:00", "meta": {"OBJECT_NAME": "STARLINK-36049", "OBJECT_ID": "2025-278Q", "EPOCH": "2025-12-13T17:40:45.956928", "MEAN_MOTION": 15.84858104, "ECCENTRICITY": 0.0004516, "INCLINATION": 42.9969, "RA_OF_ASC_NODE": 245.8976, "ARG_OF_PERICENTER": 278.037, "MEAN_ANOMALY": 81.999, "EPHEMERIS_TYPE": 0, "CLASSIFICATION_TYPE": "U", "NORAD_CAT_ID": 66805, "ELEMENT_SET_NO": 999, "REV_AT_EPOCH": 199, "BSTAR": -0.0073790961, "MEAN_MOTION_DOT": -0.01565906, "MEAN_MOTION_DDOT": 0}, "tle": {"line1": "1 66805U 25278Q   25347.73664302 -.01565906  00000+0 -73791-2 0  9993", "line2": "2 66805  42.9969 245.8976 0004516 278.0370  81.9990 15.84858104  1999"}}, "geometry": {"type": "Point", "coordinates": [-161.93535954450633, -32.17090917681874]}}, {"type": "Feature", "properties": {"norad_id": 66806, "name": "STARLINK-36069", "group": "last-30-days", "lat": 16.001672392047308, "lon": -101.70887819734924, "alt_km": 248.28006874802486, "timestamp": "2025-12-14T14:39:28.133319+00:00", "meta": {"OBJECT_NAME": "STARLINK-36069", "OBJECT_ID": "2025-278R", "EPOCH": "2025-12-12T23:33:28.013472", "MEAN_MOTION": 15.89964578, "ECCENTRICITY": 0.00095169, "INCLINATION": 42.9955, "RA_OF_ASC_NODE": 250.5622, "ARG_OF_PERICENTER": 265.6965, "MEAN_ANOMALY": 94.2822, "EPHEMERIS_TYPE": 0, "CLASSIFICATION_TYPE": "U", "NORAD_CAT_ID": 66806, "ELEMENT_SET_NO": 999, "REV_AT_EPOCH": 187, "BSTAR": 0.012088276, "MEAN_MOTION_DOT": 0.03313883, "MEAN_MOTION_DDOT": 0.010113462}, "tle": {"line1": "1 66806U 25278R   25346.98157423  .03313883  10113-1  12088-1 0  9995", "line2": "2 66806  42.9955 250.5622 0009516 265.6965  94.2822 15.89964578  1879"}}, "geometry": {"type": "Point", "coordinates": [-101.70887819734924, 16.001672392047308]}}, {"type": "Feature", "properties": {"norad_id": 66807, "name": "STARLINK-36000", "group": "last-30-days", "lat": -27.920431227334287, "lon": -154.15693823441217, "alt_km": 319.16605980698387, "timestamp": "2025-12-14T14:39:28.133330+00:00", "meta": {"OBJECT_NAME": "STARLINK-36000", "OBJECT_ID": "2025-278S", "EPOCH": "2025-12-13T16:08:48.606720", "MEAN_MOTION": 15.8470545, "ECCENTRICITY": 0.00031871, "INCLINATION": 42.9966, "RA_OF_ASC_NODE": 246.2789, "ARG_OF_PERICENTER": 295.5359, "MEAN_ANOMALY": 64.5184, "EPHEMERIS_TYPE": 0, "CLASSIFICATION_TYPE": "U", "NORAD_CAT_ID": 66807, "ELEMENT_SET_NO": 999, "REV_AT_EPOCH": 198, "BSTAR": -0.001295899, "MEAN_MOTION_DOT": -0.00300339, "MEAN_MOTION_DDOT": 0}, "tle": {"line1": "1 66807U 25278S   25347.67278480 -.00300339  00000+0 -12959-2 0  9991", "line2": "2 66807  42.9966 246.2789 0003187 295.5359  64.5184 15.84705450  1985"}}, "geometry": {"type": "Point", "coordinates": [-154.15693823441217, -27.920431227334287]}}, {"type": "Feature", "properties": {"norad_id": 66808, "name": "STARLINK-36071", "group": "last-30-days", "lat": -29.909834375854413, "lon": -157.61025332285936, "alt_km": 321.66530705419154, "timestamp": "2025-12-14T14:39:28.133340+00:00", "meta": {"OBJECT_NAME": "STARLINK-36071", "OBJECT_ID": "2025-278T", "EPOCH": "2025-12-13T20:41:49.126560", "MEAN_MOTION": 15.84386872, "ECCENTRICITY": 0.00025134, "INCLINATION": 42.9971, "RA_OF_ASC_NODE": 245.119, "ARG_OF_PERICENTER": 246.4306, "MEAN_ANOMALY": 113.6303, "EPHEMERIS_TYPE": 0, "CLASSIFICATION_TYPE": "U", "NORAD_CAT_ID": 66808, "ELEMENT_SET_NO": 999, "REV_AT_EPOCH": 201, "BSTAR": -0.0017763932, "MEAN_MOTION_DOT": -0.00400597, "MEAN_MOTION_DDOT": 0}, "tle": {"line1": "1 66808U 25278T   25347.86237415 -.00400597  00000+0 -17764-2 0  9992", "line2": "2 66808  42.9971 245.1190 0002513 246.4306 113.6303 15.84386872  2012"}}, "geometry": {"type": "Point", "coordinates": [-157.61025332285936, -29.909834375854413]}}, {"type": "Feature", "properties": {"norad_id": 66809, "name": "STARLINK-35979", "group": "last-30-days", "lat": -13.318844222324284, "lon": -134.2725161264787, "alt_km": 305.7471403963291, "timestamp": "2025-12-14T14:39:28.133350+00:00", "meta": {"OBJECT_NAME": "STARLINK-35979", "OBJECT_ID": "2025-278U", "EPOCH": "2025-12-13T14:35:43.976832", "MEAN_MOTION": 15.87786553, "ECCENTRICITY": 0.0014184, "INCLINATION": 42.9962, "RA_OF_ASC_NODE": 246.653, "ARG_OF_PERICENTER": 245.6682, "MEAN_ANOMALY": 114.2711, "EPHEMERIS_TYPE": 0, "CLASSIFICATION_TYPE": "U", "NORAD_CAT_ID": 66809, "ELEMENT_SET_NO": 999, "REV_AT_EPOCH": 197, "BSTAR": 0.0022005782, "MEAN_MOTION_DOT": 0.00663007, "MEAN_MOTION_DDOT": 0}, "tle": {"line1": "1 66809U 25278U   25347.60814788  .00663007  00000+0  22006-2 0  9999", "line2": "2 66809  42.9962 246.6530 0014184 245.6682 114.2711 15.87786553  1979"}}, "geometry": {"type": "Point", "coordinates": [-134.2725161264787, -13.318844222324284]}}, {"type": "Feature", "properties": {"norad_id": 66810, "name": "STARLINK-36046", "group": "last-30-days", "lat": -2.431126854868497, "lon": -122.20546267037554, "alt_km": 295.6853176077366, "timestamp": "2025-12-14T14:39:28.133360+00:00", "meta": {"OBJECT_NAME": "STARLINK-36046", "OBJECT_ID": "2025-278V", "EPOCH": "2025-12-13T01:00:19.749600", "MEAN_MOTION": 15.89788073, "ECCENTRICITY": 0.00029914, "INCLINATION": 42.9974, "RA_OF_ASC_NODE": 250.1521, "ARG_OF_PERICENTER": 285.6834, "MEAN_ANOMALY": 74.371, "EPHEMERIS_TYPE": 0, "CLASSIFICATION_TYPE": "U", "NORAD_CAT_ID": 66810, "ELEMENT_SET_NO": 999, "REV_AT_EPOCH": 188, "BSTAR": 0.0022644771, "MEAN_MOTION_DOT": 0.00758232, "MEAN_MOTION_DDOT": 0}, "tle": {"line1": "1 66810U 25278V   25347.04189525  .00758232  00000+0  22645-2 0  9997", "line2": "2 66810  42.9974 250.1521 0002991 285.6834  74.3710 15.89788073  1886"}}, "geometry": {"type": "Point", "coordinates": [-122.20546267037554, -2.431126854868497]}}, {"type": "Feature", "properties": {"norad_id": 66811, "name": "STARLINK-36045", "group": "last-30-days", "lat": 11.744765691037552, "lon": -106.74255950261397, "alt_km": 269.47547547953127, "timestamp": "2025-12-14T14:39:28.133370+00:00", "meta": {"OBJECT_NAME": "STARLINK-36045", "OBJECT_ID": "2025-278W", "EPOCH": "2025-12-13T01:00:27.694944", "MEAN_MOTION": 15.89484454, "ECCENTRICITY": 0.00029504, "INCLINATION": 42.997, "RA_OF_ASC_NODE": 250.1519, "ARG_OF_PERICENTER": 282.9701, "MEAN_ANOMALY": 77.0844, "EPHEMERIS_TYPE": 0, "CLASSIFICATION_TYPE": "U", "NORAD_CAT_ID": 66811, "ELEMENT_SET_NO": 999, "REV_AT_EPOCH": 188, "BSTAR": 0.0092253817, "MEAN_MOTION_DOT": 0.03295879, "MEAN_MOTION_DDOT": 0}, "tle": {"line1": "1 66811U 25278W   25347.04198721  .03295879  00000+0  92254-2 0  9995", "line2": "2 66811  42.9970 250.1519 0002950 282.9701  77.0844 15.89484454  1882"}}, "geometry": {"type": "Point", "coordinates": [-106.74255950261397, 11.744765691037552]}}, {"type": "Feature", "properties": {"norad_id": 66812, "name": "STARLINK-36054", "group": "last-30-days", "lat": -23.644683255525063, "lon": -147.53911602678542, "alt_km": 327.52374555483493, "timestamp": "2025-12-14T14:39:28.133382+00:00", "meta": {"OBJECT_NAME": "STARLINK-36054", "OBJECT_ID": "2025-278X", "EPOCH": "2025-12-13T16:05:49.408800", "MEAN_MOTION": 15.85032711, "ECCENTRICITY": 0.00040265, "INCLINATION": 42.9972, "RA_OF_ASC_NODE": 246.2602, "ARG_OF_PERICENTER": 259.0984, "MEAN_ANOMALY": 100.9436, "EPHEMERIS_TYPE": 0, "CLASSIFICATION_TYPE": "U", "NORAD_CAT_ID": 66812, "ELEMENT_SET_NO": 999, "REV_AT_EPOCH": 198, "BSTAR": -0.0090689916, "MEAN_MOTION_DOT": -0.01927637, "MEAN_MOTION_DDOT": 0}, "tle": {"line1": "1 66812U 25278X   25347.67071075 -.01927637  00000+0 -90690-2 0  9993", "line2": "2 66812  42.9972 246.2602 0004026 259.0984 100.9436 15.85032711  1983"}}, "geometry": {"type": "Point", "coordinates": [-147.53911602678542, -23.644683255525063]}}, {"type": "Feature", "properties": {"norad_id": 66813, "name": "STARLINK-36042", "group": "last-30-days", "lat": -15.765372573356958, "lon": -137.18054289440795, "alt_km": 309.7443111472958, "timestamp": "2025-12-14T14:39:28.133393+00:00", "meta": {"OBJECT_NAME": "STARLINK-36042", "OBJECT_ID": "2025-278Y", "EPOCH": "2025-12-13T17:36:40.630176", "MEAN_MOTION": 15.8651752, "ECCENTRICITY": 0.00121856, "INCLINATION": 42.9968, "RA_OF_ASC_NODE": 245.8749, "ARG_OF_PERICENTER": 245.7656, "MEAN_ANOMALY": 114.1945, "EPHEMERIS_TYPE": 0, "CLASSIFICATION_TYPE": "U", "NORAD_CAT_ID": 66813, "ELEMENT_SET_NO": 999, "REV_AT_EPOCH": 199, "BSTAR": 0.0023000769, "MEAN_MOTION_DOT": 0.00648898, "MEAN_MOTION_DDOT": 0}, "tle": {"line1": "1 66813U 25278Y   25347.73380359  .00648898  00000+0  23001-2 0  9997", "line2": "2 66813  42.9968 245.8749 0012185 245.7656 114.1945 15.86517520  1999"}}, "geometry": {"type": "Point", "coordinates": [-137.18054289440795, -15.765372573356958]}}, {"type": "Feature", "properties": {"norad_id": 66814, "name": "STARLINK-35984", "group": "last-30-days", "lat": 4.803143175969385, "lon": -114.45085232230475, "alt_km": 306.1848002992756, "timestamp": "2025-12-14T14:39:28.133414+00:00", "meta": {"OBJECT_NAME": "STARLINK-35984", "OBJECT_ID": "2025-278Z", "EPOCH": "2025-12-12T05:17:39.039072", "MEAN_MOTION": 15.89263924, "ECCENTRICITY": 0.00022268, "INCLINATION": 42.9971, "RA_OF_ASC_NODE": 255.1754, "ARG_OF_PERICENTER": 272.7868, "MEAN_ANOMALY": 87.2751, "EPHEMERIS_TYPE": 0, "CLASSIFICATION_TYPE": "U", "NORAD_CAT_ID": 66814, "ELEMENT_SET_NO": 999, "REV_AT_EPOCH": 175, "BSTAR": -0.00078876214, "MEAN_MOTION_DOT": -0.00230906, "MEAN_MOTION_DDOT": 0}, "tle": {"line1": "1 66814U 25278Z   25346.22059073 -.00230906  00000+0 -78876-3 0  9997", "line2": "2 66814  42.9971 255.1754 0002226 272.7868  87.2751 15.89263924  1752"}}, "geometry": {"type": "Point", "coordinates": [-114.45085232230475, 4.803143175969385]}}]}